O3B MPOWER F1           
1 54755U 22174A   23265.41958424 -.00000016  00000+0  00000+0 0  9993
2 54755   0.0472  17.0672 0004859 178.9248  38.0060  5.00118386 15396
